CCSDS_OMM_VERS = 2.0
CREATION_DATE  = 
ORIGINATOR     = 

OBJECT_NAME    = CYGNUS NG-23
OBJECT_ID      = 2025-208A
CENTER_NAME    = EARTH
REF_FRAME      = TEME
TIME_SYSTEM    = UTC
MEAN_ELEMENT_THEORY = SGP/SGP4

EPOCH          = 2026-01-02T05:49:12.430272
MEAN_MOTION    = 15.49029434
ECCENTRICITY   = .00075315
INCLINATION    = 51.6329
RA_OF_ASC_NODE = 40.9506
ARG_OF_PERICENTER = 330.5355
MEAN_ANOMALY   = 29.5208

EPHEMERIS_TYPE = 0
CLASSIFICATION_TYPE = U
NORAD_CAT_ID   = 65616
ELEMENT_SET_NO = 999
REV_AT_EPOCH   = 22
BSTAR          = .2976005E-3
MEAN_MOTION_DOT = .16008E-3
MEAN_MOTION_DDOT = 0

CCSDS_OMM_VERS = 2.0
CREATION_DATE  = 
ORIGINATOR     = 

OBJECT_NAME    = DRAGONFLY
OBJECT_ID      = 1998-067XH
CENTER_NAME    = EARTH
REF_FRAME      = TEME
TIME_SYSTEM    = UTC
MEAN_ELEMENT_THEORY = SGP/SGP4

EPOCH          = 2026-01-02T02:19:46.563744
MEAN_MOTION    = 15.80614287
ECCENTRICITY   = .00087884
INCLINATION    = 51.6238
RA_OF_ASC_NODE = 30.9380
ARG_OF_PERICENTER = 35.0926
MEAN_ANOMALY   = 325.0653

EPHEMERIS_TYPE = 0
CLASSIFICATION_TYPE = U
NORAD_CAT_ID   = 65729
ELEMENT_SET_NO = 999
REV_AT_EPOCH   = 1637
BSTAR          = .16938019E-2
MEAN_MOTION_DOT = .34442E-2
MEAN_MOTION_DDOT = 0

CCSDS_OMM_VERS = 2.0
CREATION_DATE  = 
ORIGINATOR     = 

OBJECT_NAME    = 1998-067XK
OBJECT_ID      = 1998-067XK
CENTER_NAME    = EARTH
REF_FRAME      = TEME
TIME_SYSTEM    = UTC
MEAN_ELEMENT_THEORY = SGP/SGP4

EPOCH          = 2026-01-02T07:44:07.639296
MEAN_MOTION    = 15.70407010
ECCENTRICITY   = .00052701
INCLINATION    = 51.6290
RA_OF_ASC_NODE = 32.4842
ARG_OF_PERICENTER = 11.7490
MEAN_ANOMALY   = 348.3630

EPHEMERIS_TYPE = 0
CLASSIFICATION_TYPE = U
NORAD_CAT_ID   = 65731
ELEMENT_SET_NO = 999
REV_AT_EPOCH   = 1637
BSTAR          = .12759378E-2
MEAN_MOTION_DOT = .162016E-2
MEAN_MOTION_DDOT = 0

CCSDS_OMM_VERS = 2.0
CREATION_DATE  = 
ORIGINATOR     = 

OBJECT_NAME    = RSP-03
OBJECT_ID      = 1998-067XL
CENTER_NAME    = EARTH
REF_FRAME      = TEME
TIME_SYSTEM    = UTC
MEAN_ELEMENT_THEORY = SGP/SGP4

EPOCH          = 2026-01-02T02:09:05.890464
MEAN_MOTION    = 15.74900030
ECCENTRICITY   = .00064505
INCLINATION    = 51.6259
RA_OF_ASC_NODE = 32.4101
ARG_OF_PERICENTER = 16.9983
MEAN_ANOMALY   = 343.1231

EPHEMERIS_TYPE = 0
CLASSIFICATION_TYPE = U
NORAD_CAT_ID   = 65732
ELEMENT_SET_NO = 999
REV_AT_EPOCH   = 1636
BSTAR          = .15376002E-2
MEAN_MOTION_DOT = .238894E-2
MEAN_MOTION_DDOT = 0

CCSDS_OMM_VERS = 2.0
CREATION_DATE  = 
ORIGINATOR     = 

OBJECT_NAME    = GHS-01
OBJECT_ID      = 1998-067XM
CENTER_NAME    = EARTH
REF_FRAME      = TEME
TIME_SYSTEM    = UTC
MEAN_ELEMENT_THEORY = SGP/SGP4

EPOCH          = 2026-01-01T10:17:43.988640
MEAN_MOTION    = 15.86066620
ECCENTRICITY   = .00098915
INCLINATION    = 51.6263
RA_OF_ASC_NODE = 33.2330
ARG_OF_PERICENTER = 35.7357
MEAN_ANOMALY   = 324.4307

EPHEMERIS_TYPE = 0
CLASSIFICATION_TYPE = U
NORAD_CAT_ID   = 65733
ELEMENT_SET_NO = 999
REV_AT_EPOCH   = 1629
BSTAR          = .18735099E-2
MEAN_MOTION_DOT = .502215E-2
MEAN_MOTION_DDOT = 0

CCSDS_OMM_VERS = 2.0
CREATION_DATE  = 
ORIGINATOR     = 

OBJECT_NAME    = YOTSUBA-KULOVER
OBJECT_ID      = 1998-067XN
CENTER_NAME    = EARTH
REF_FRAME      = TEME
TIME_SYSTEM    = UTC
MEAN_ELEMENT_THEORY = SGP/SGP4

EPOCH          = 2026-01-02T04:48:23.184576
MEAN_MOTION    = 15.62632444
ECCENTRICITY   = .00035063
INCLINATION    = 51.6293
RA_OF_ASC_NODE = 36.9233
ARG_OF_PERICENTER = 41.0391
MEAN_ANOMALY   = 319.0866

EPHEMERIS_TYPE = 0
CLASSIFICATION_TYPE = U
NORAD_CAT_ID   = 65941
ELEMENT_SET_NO = 999
REV_AT_EPOCH   = 1305
BSTAR          = .12269059E-2
MEAN_MOTION_DOT = .113017E-2
MEAN_MOTION_DDOT = 0

CCSDS_OMM_VERS = 2.0
CREATION_DATE  = 
ORIGINATOR     = 

OBJECT_NAME    = BOTAN
OBJECT_ID      = 1998-067XP
CENTER_NAME    = EARTH
REF_FRAME      = TEME
TIME_SYSTEM    = UTC
MEAN_ELEMENT_THEORY = SGP/SGP4

EPOCH          = 2026-01-02T03:36:22.886496
MEAN_MOTION    = 15.67940864
ECCENTRICITY   = .00043047
INCLINATION    = 51.6277
RA_OF_ASC_NODE = 35.8337
ARG_OF_PERICENTER = 29.4049
MEAN_ANOMALY   = 330.7189

EPHEMERIS_TYPE = 0
CLASSIFICATION_TYPE = U
NORAD_CAT_ID   = 65942
ELEMENT_SET_NO = 999
REV_AT_EPOCH   = 1306
BSTAR          = .16108875E-2
MEAN_MOTION_DOT = .185347E-2
MEAN_MOTION_DDOT = 0

CCSDS_OMM_VERS = 2.0
CREATION_DATE  = 
ORIGINATOR     = 

OBJECT_NAME    = E-KAGAKU-1
OBJECT_ID      = 1998-067XQ
CENTER_NAME    = EARTH
REF_FRAME      = TEME
TIME_SYSTEM    = UTC
MEAN_ELEMENT_THEORY = SGP/SGP4

EPOCH          = 2026-01-01T08:51:04.568832
MEAN_MOTION    = 15.62480347
ECCENTRICITY   = .00020247
INCLINATION    = 51.6307
RA_OF_ASC_NODE = 41.1262
ARG_OF_PERICENTER = 24.8503
MEAN_ANOMALY   = 335.2588

EPHEMERIS_TYPE = 0
CLASSIFICATION_TYPE = U
NORAD_CAT_ID   = 65943
ELEMENT_SET_NO = 999
REV_AT_EPOCH   = 1292
BSTAR          = .11721053E-2
MEAN_MOTION_DOT = .107212E-2
MEAN_MOTION_DDOT = 0

CCSDS_OMM_VERS = 2.0
CREATION_DATE  = 
ORIGINATOR     = 

OBJECT_NAME    = HRC MONOBLOCK CAMERA
OBJECT_ID      = 1998-067XR
CENTER_NAME    = EARTH
REF_FRAME      = TEME
TIME_SYSTEM    = UTC
MEAN_ELEMENT_THEORY = SGP/SGP4

EPOCH          = 2026-01-02T02:09:02.034432
MEAN_MOTION    = 15.55696600
ECCENTRICITY   = .00015203
INCLINATION    = 51.6311
RA_OF_ASC_NODE = 39.9312
ARG_OF_PERICENTER = 296.1606
MEAN_ANOMALY   = 63.9228

EPHEMERIS_TYPE = 0
CLASSIFICATION_TYPE = U
NORAD_CAT_ID   = 66052
ELEMENT_SET_NO = 999
REV_AT_EPOCH   = 1200
BSTAR          = .69791255E-3
MEAN_MOTION_DOT = .48749E-3
MEAN_MOTION_DDOT = 0

CCSDS_OMM_VERS = 2.0
CREATION_DATE  = 
ORIGINATOR     = 

OBJECT_NAME    = HTV-X1
OBJECT_ID      = 2025-241A
CENTER_NAME    = EARTH
REF_FRAME      = TEME
TIME_SYSTEM    = UTC
MEAN_ELEMENT_THEORY = SGP/SGP4

EPOCH          = 2026-01-02T05:49:12.430272
MEAN_MOTION    = 15.49029434
ECCENTRICITY   = .00075315
INCLINATION    = 51.6329
RA_OF_ASC_NODE = 40.9506
ARG_OF_PERICENTER = 330.5355
MEAN_ANOMALY   = 29.5208

EPHEMERIS_TYPE = 0
CLASSIFICATION_TYPE = U
NORAD_CAT_ID   = 66174
ELEMENT_SET_NO = 999
REV_AT_EPOCH   = 51
BSTAR          = .2976005E-3
MEAN_MOTION_DOT = .16008E-3
MEAN_MOTION_DDOT = 0

CCSDS_OMM_VERS = 2.0
CREATION_DATE  = 
ORIGINATOR     = 

OBJECT_NAME    = SZ-21 MODULE
OBJECT_ID      = 2025-246C
CENTER_NAME    = EARTH
REF_FRAME      = TEME
TIME_SYSTEM    = UTC
MEAN_ELEMENT_THEORY = SGP/SGP4

EPOCH          = 2026-01-02T01:11:10.644000
MEAN_MOTION    = 15.63714409
ECCENTRICITY   = .00025753
INCLINATION    = 41.4758
RA_OF_ASC_NODE = 252.0510
ARG_OF_PERICENTER = 18.3037
MEAN_ANOMALY   = 341.7895

EPHEMERIS_TYPE = 0
CLASSIFICATION_TYPE = U
NORAD_CAT_ID   = 66515
ELEMENT_SET_NO = 999
REV_AT_EPOCH   = 762
BSTAR          = .41968007E-3
MEAN_MOTION_DOT = .40185E-3
MEAN_MOTION_DDOT = 0

CCSDS_OMM_VERS = 2.0
CREATION_DATE  = 
ORIGINATOR     = 

OBJECT_NAME    = SHENZHOU-22
OBJECT_ID      = 2025-272A
CENTER_NAME    = EARTH
REF_FRAME      = TEME
TIME_SYSTEM    = UTC
MEAN_ELEMENT_THEORY = SGP/SGP4

EPOCH          = 2026-01-02T03:24:33.153696
MEAN_MOTION    = 15.60055172
ECCENTRICITY   = .00101915
INCLINATION    = 41.4662
RA_OF_ASC_NODE = 252.7694
ARG_OF_PERICENTER = 202.3911
MEAN_ANOMALY   = 157.6484

EPHEMERIS_TYPE = 0
CLASSIFICATION_TYPE = U
NORAD_CAT_ID   = 66645
ELEMENT_SET_NO = 999
REV_AT_EPOCH   = 26714
BSTAR          = .35128331E-3
MEAN_MOTION_DOT = .29116E-3
MEAN_MOTION_DDOT = 0

